{
  "type": "FeatureCollection",
  "features": [
    {
      "type": "Feature",
      "properties": {
        "norad_id": 58647,
        "name": "TIANMU-1 13",
        "group": "weather",
        "lat": 56.05080649713805,
        "lon": -6.046260853160698,
        "alt_km": 490.30259919176206,
        "timestamp": "2025-12-11T08:58:26.757454+00:00",
        "meta_object_name": "TIANMU-1 13",
        "meta_object_id": "2023-205C",
        "meta_epoch": "2025-12-11T03:59:59.778240",
        "meta_mean_motion": 15.24491905,
        "meta_eccentricity": 0.0006035,
        "meta_inclination": 97.3626,
        "meta_ra_of_asc_node": 4.8236,
        "meta_arg_of_pericenter": 274.523,
        "meta_mean_anomaly": 85.5318,
        "meta_ephemeris_type": 0,
        "meta_classification_type": "U",
        "meta_norad_cat_id": 58647,
        "meta_element_set_no": 999,
        "meta_rev_at_epoch": 10883,
        "meta_bstar": 0.00039139,
        "meta_mean_motion_dot": 9.557e-05,
        "meta_mean_motion_ddot": 0,
        "tle_line1": "1 58647U 23205C   25345.16666410  .00009557  00000+0  39139-3 0  9994",
        "tle_line2": "2 58647  97.3626   4.8236 0006035 274.5230  85.5318 15.24491905108835"
      },
      "geometry": {
        "type": "Point",
        "coordinates": [
          -6.046260853160698,
          56.05080649713805
        ]
      }
    },
    {
      "type": "Feature",
      "properties": {
        "norad_id": 58648,
        "name": "TIANMU-1 14",
        "group": "weather",
        "lat": 31.757396565588177,
        "lon": -171.03615124078686,
        "alt_km": 493.7198812736833,
        "timestamp": "2025-12-11T08:58:26.757472+00:00",
        "meta_object_name": "TIANMU-1 14",
        "meta_object_id": "2023-205D",
        "meta_epoch": "2025-12-11T03:36:03.983904",
        "meta_mean_motion": 15.24475157,
        "meta_eccentricity": 0.000687,
        "meta_inclination": 97.3559,
        "meta_ra_of_asc_node": 4.1575,
        "meta_arg_of_pericenter": 279.6602,
        "meta_mean_anomaly": 80.3859,
        "meta_ephemeris_type": 0,
        "meta_classification_type": "U",
        "meta_norad_cat_id": 58648,
        "meta_element_set_no": 999,
        "meta_rev_at_epoch": 10883,
        "meta_bstar": 0.00040403,
        "meta_mean_motion_dot": 9.865e-05,
        "meta_mean_motion_ddot": 0,
        "tle_line1": "1 58648U 23205D   25345.15004611  .00009865  00000+0  40403-3 0  9991",
        "tle_line2": "2 58648  97.3559   4.1575 0006870 279.6602  80.3859 15.24475157108830"
      },
      "geometry": {
        "type": "Point",
        "coordinates": [
          -171.03615124078686,
          31.757396565588177
        ]
      }
    },
    {
      "type": "Feature",
      "properties": {
        "norad_id": 58660,
        "name": "TIANMU-1 19",
        "group": "weather",
        "lat": 26.125143710240437,
        "lon": 92.73941760316433,
        "alt_km": 483.214038735382,
        "timestamp": "2025-12-11T08:58:26.757489+00:00",
        "meta_object_name": "TIANMU-1 19",
        "meta_object_id": "2023-208A",
        "meta_epoch": "2025-12-11T04:08:36.070944",
        "meta_mean_motion": 15.27802854,
        "meta_eccentricity": 0.0004036,
        "meta_inclination": 97.4386,
        "meta_ra_of_asc_node": 96.2125,
        "meta_arg_of_pericenter": 260.2283,
        "meta_mean_anomaly": 99.85,
        "meta_ephemeris_type": 0,
        "meta_classification_type": "U",
        "meta_norad_cat_id": 58660,
        "meta_element_set_no": 999,
        "meta_rev_at_epoch": 10858,
        "meta_bstar": 0.00052486,
        "meta_mean_motion_dot": 0.00014192,
        "meta_mean_motion_ddot": 0,
        "tle_line1": "1 58660U 23208A   25345.17263971  .00014192  00000+0  52486-3 0  9999",
        "tle_line2": "2 58660  97.4386  96.2125 0004036 260.2283  99.8500 15.27802854108580"
      },
      "geometry": {
        "type": "Point",
        "coordinates": [
          92.73941760316433,
          26.125143710240437
        ]
      }
    },
    {
      "type": "Feature",
      "properties": {
        "norad_id": 58661,
        "name": "TIANMU-1 20",
        "group": "weather",
        "lat": 81.13827694399471,
        "lon": -26.28573189300142,
        "alt_km": 475.68901754314174,
        "timestamp": "2025-12-11T08:58:26.757505+00:00",
        "meta_object_name": "TIANMU-1 20",
        "meta_object_id": "2023-208B",
        "meta_epoch": "2025-12-11T05:25:09.369696",
        "meta_mean_motion": 15.28995113,
        "meta_eccentricity": 0.0006287,
        "meta_inclination": 97.4323,
        "meta_ra_of_asc_node": 96.7118,
        "meta_arg_of_pericenter": 272.4437,
        "meta_mean_anomaly": 87.6083,
        "meta_ephemeris_type": 0,
        "meta_classification_type": "U",
        "meta_norad_cat_id": 58661,
        "meta_element_set_no": 999,
        "meta_rev_at_epoch": 10866,
        "meta_bstar": 0.00049396,
        "meta_mean_motion_dot": 0.00013852,
        "meta_mean_motion_ddot": 0,
        "tle_line1": "1 58661U 23208B   25345.22580289  .00013852  00000+0  49396-3 0  9998",
        "tle_line2": "2 58661  97.4323  96.7118 0006287 272.4437  87.6083 15.28995113108667"
      },
      "geometry": {
        "type": "Point",
        "coordinates": [
          -26.28573189300142,
          81.13827694399471
        ]
      }
    },
    {
      "type": "Feature",
      "properties": {
        "norad_id": 58662,
        "name": "TIANMU-1 21",
        "group": "weather",
        "lat": 82.05755011897895,
        "lon": 29.32483201196772,
        "alt_km": 467.90784284041274,
        "timestamp": "2025-12-11T08:58:26.757522+00:00",
        "meta_object_name": "TIANMU-1 21",
        "meta_object_id": "2023-208C",
        "meta_epoch": "2025-12-11T05:27:29.538144",
        "meta_mean_motion": 15.314979,
        "meta_eccentricity": 0.0005887,
        "meta_inclination": 97.4371,
        "meta_ra_of_asc_node": 98.6151,
        "meta_arg_of_pericenter": 266.579,
        "meta_mean_anomaly": 93.4778,
        "meta_ephemeris_type": 0,
        "meta_classification_type": "U",
        "meta_norad_cat_id": 58662,
        "meta_element_set_no": 999,
        "meta_rev_at_epoch": 10876,
        "meta_bstar": 0.00055046,
        "meta_mean_motion_dot": 0.00016692,
        "meta_mean_motion_ddot": 0,
        "tle_line1": "1 58662U 23208C   25345.22742521  .00016692  00000+0  55046-3 0  9992",
        "tle_line2": "2 58662  97.4371  98.6151 0005887 266.5790  93.4778 15.31497900108762"
      },
      "geometry": {
        "type": "Point",
        "coordinates": [
          29.32483201196772,
          82.05755011897895
        ]
      }
    },
    {
      "type": "Feature",
      "properties": {
        "norad_id": 58663,
        "name": "TIANMU-1 22",
        "group": "weather",
        "lat": 28.503269601213212,
        "lon": 92.40496151180139,
        "alt_km": 482.0189982397342,
        "timestamp": "2025-12-11T08:58:26.757538+00:00",
        "meta_object_name": "TIANMU-1 22",
        "meta_object_id": "2023-208D",
        "meta_epoch": "2025-12-11T05:42:15.464736",
        "meta_mean_motion": 15.27563308,
        "meta_eccentricity": 0.0002702,
        "meta_inclination": 97.4379,
        "meta_ra_of_asc_node": 96.3372,
        "meta_arg_of_pericenter": 295.3018,
        "meta_mean_anomaly": 64.7941,
        "meta_ephemeris_type": 0,
        "meta_classification_type": "U",
        "meta_norad_cat_id": 58663,
        "meta_element_set_no": 999,
        "meta_rev_at_epoch": 10860,
        "meta_bstar": 0.00050527,
        "meta_mean_motion_dot": 0.00013558,
        "meta_mean_motion_ddot": 0,
        "tle_line1": "1 58663U 23208D   25345.23767899  .00013558  00000+0  50527-3 0  9996",
        "tle_line2": "2 58663  97.4379  96.3372 0002702 295.3018  64.7941 15.27563308108604"
      },
      "geometry": {
        "type": "Point",
        "coordinates": [
          92.40496151180139,
          28.503269601213212
        ]
      }
    },
    {
      "type": "Feature",
      "properties": {
        "norad_id": 58700,
        "name": "TIANMU-1 15",
        "group": "weather",
        "lat": 7.264701131644135,
        "lon": -12.193699687314366,
        "alt_km": 496.3440518954867,
        "timestamp": "2025-12-11T08:58:26.757555+00:00",
        "meta_object_name": "TIANMU-1 15",
        "meta_object_id": "2024-004A",
        "meta_epoch": "2025-12-11T05:04:08.266656",
        "meta_mean_motion": 15.24647006,
        "meta_eccentricity": 0.0005252,
        "meta_inclination": 97.4631,
        "meta_ra_of_asc_node": 166.6867,
        "meta_arg_of_pericenter": 305.0685,
        "meta_mean_anomaly": 55.006,
        "meta_ephemeris_type": 0,
        "meta_classification_type": "U",
        "meta_norad_cat_id": 58700,
        "meta_element_set_no": 999,
        "meta_rev_at_epoch": 10711,
        "meta_bstar": 0.00044346,
        "meta_mean_motion_dot": 0.00010888,
        "meta_mean_motion_ddot": 0,
        "tle_line1": "1 58700U 24004A   25345.21120679  .00010888  00000+0  44346-3 0  9995",
        "tle_line2": "2 58700  97.4631 166.6867 0005252 305.0685  55.0060 15.24647006107114"
      },
      "geometry": {
        "type": "Point",
        "coordinates": [
          -12.193699687314366,
          7.264701131644135
        ]
      }
    }
  ]
}